COSMOS 1933             
1 18958U 88020A   26038.13500639  .00005177  00000+0  25527-3 0  9998
2 18958  82.5122 281.1418 0003270 326.7584  33.3443 15.17722537 45598
SL-3 R/B                
1 19046U 88032B   26038.11505609  .00007578  00000+0  35702-3 0  9993
2 19046  97.5152  21.4949 0025657 345.0019  15.0452 15.19510167 47461
SL-16 R/B               
1 19120U 88039B   26037.69484324 -.00000078  00000+0 -14254-4 0  9995
2 19120  71.0150 134.0887 0020858  21.7265 338.4740 14.19611671953986
COSMOS 1953             
1 19210U 88050A   26038.17834414  .00012834  00000+0  46922-3 0  9998
2 19210  82.5093 188.9122 0010538 228.3737 131.6601 15.27902425 33126
SL-8 R/B                
1 19257U 88053B   26037.87406267  .00000364  00000+0  12648-3 0  9992
2 19257  74.0478 169.2612 0020322 354.3388 156.2040 14.38897204972165
COSMOS 1975             
1 19573U 88093A   26037.81079686  .00009252  00000+0  34203-3 0  9998
2 19573  82.5222 148.6597 0010341 279.9775  80.0297 15.27519266 14693
SL-14 R/B               
1 19574U 88093B   26038.15131734  .00000569  00000+0  62622-4 0  9999
2 19574  82.5281  70.7198 0021808 136.1397 284.4803 14.85622473996505
SL-16 R/B               
1 19650U 88102B   26037.89615352  .00000118  00000+0  83808-4 0  9997
2 19650  70.9970 216.2855 0012336  52.4484 307.7758 14.16146384922532
INTERCOSMOS 24          
1 20261U 89080A   26037.74632803  .00000709  00000+0  20507-3 0  9999
2 20261  82.6069 124.5440 1188169   4.6728 356.4357 12.59516015662906
SL-14 R/B               
1 20262U 89080C   26037.90906402  .00000514  00000+0  15600-3 0  9999
2 20262  82.5942 192.9462 1229439 255.1403  91.0617 12.50456880656300
DELTA 1 R/B             
1 20323U 89089B   26038.13305566  .00000522  00000+0  13803-3 0  9998
2 20323  97.0726 250.4273 0068128 218.3627 141.2716 14.50637371891300
ARIANE 40 R/B           
1 20443U 90005H   26038.16774622  .00000376  00000+0  13314-3 0  9991
2 20443  98.3151  99.7284 0009011 299.5427  60.4862 14.39849973888412
