CCSDS_OMM_VERS = 2.0
CREATION_DATE  = 
ORIGINATOR     = 

OBJECT_NAME    = COSMOS 1933
OBJECT_ID      = 1988-020A
CENTER_NAME    = EARTH
REF_FRAME      = TEME
TIME_SYSTEM    = UTC
MEAN_ELEMENT_THEORY = SGP/SGP4

EPOCH          = 2026-02-07T03:14:24.552096
MEAN_MOTION    = 15.17722537
ECCENTRICITY   = .000327
INCLINATION    = 82.5122
RA_OF_ASC_NODE = 281.1418
ARG_OF_PERICENTER = 326.7584
MEAN_ANOMALY   = 33.3443

EPHEMERIS_TYPE = 0
CLASSIFICATION_TYPE = U
NORAD_CAT_ID   = 18958
ELEMENT_SET_NO = 999
REV_AT_EPOCH   = 4559
BSTAR          = .25527E-3
MEAN_MOTION_DOT = .5177E-4
MEAN_MOTION_DDOT = 0

CCSDS_OMM_VERS = 2.0
CREATION_DATE  = 
ORIGINATOR     = 

OBJECT_NAME    = SL-3 R/B
OBJECT_ID      = 1988-032B
CENTER_NAME    = EARTH
REF_FRAME      = TEME
TIME_SYSTEM    = UTC
MEAN_ELEMENT_THEORY = SGP/SGP4

EPOCH          = 2026-02-07T02:45:40.846176
MEAN_MOTION    = 15.19510167
ECCENTRICITY   = .0025657
INCLINATION    = 97.5152
RA_OF_ASC_NODE = 21.4949
ARG_OF_PERICENTER = 345.0019
MEAN_ANOMALY   = 15.0452

EPHEMERIS_TYPE = 0
CLASSIFICATION_TYPE = U
NORAD_CAT_ID   = 19046
ELEMENT_SET_NO = 999
REV_AT_EPOCH   = 4746
BSTAR          = .35702E-3
MEAN_MOTION_DOT = .7578E-4
MEAN_MOTION_DDOT = 0

CCSDS_OMM_VERS = 2.0
CREATION_DATE  = 
ORIGINATOR     = 

OBJECT_NAME    = SL-16 R/B
OBJECT_ID      = 1988-039B
CENTER_NAME    = EARTH
REF_FRAME      = TEME
TIME_SYSTEM    = UTC
MEAN_ELEMENT_THEORY = SGP/SGP4

EPOCH          = 2026-02-06T16:40:34.455936
MEAN_MOTION    = 14.19611671
ECCENTRICITY   = .00208585
INCLINATION    = 71.0150
RA_OF_ASC_NODE = 134.0887
ARG_OF_PERICENTER = 21.7265
MEAN_ANOMALY   = 338.4740

EPHEMERIS_TYPE = 0
CLASSIFICATION_TYPE = U
NORAD_CAT_ID   = 19120
ELEMENT_SET_NO = 999
REV_AT_EPOCH   = 95398
BSTAR          = -.14253618E-4
MEAN_MOTION_DOT = -.78E-6
MEAN_MOTION_DDOT = 0

CCSDS_OMM_VERS = 2.0
CREATION_DATE  = 
ORIGINATOR     = 

OBJECT_NAME    = COSMOS 1953
OBJECT_ID      = 1988-050A
CENTER_NAME    = EARTH
REF_FRAME      = TEME
TIME_SYSTEM    = UTC
MEAN_ELEMENT_THEORY = SGP/SGP4

EPOCH          = 2026-02-07T04:16:48.933696
MEAN_MOTION    = 15.27902425
ECCENTRICITY   = .0010538
INCLINATION    = 82.5093
RA_OF_ASC_NODE = 188.9122
ARG_OF_PERICENTER = 228.3737
MEAN_ANOMALY   = 131.6601

EPHEMERIS_TYPE = 0
CLASSIFICATION_TYPE = U
NORAD_CAT_ID   = 19210
ELEMENT_SET_NO = 999
REV_AT_EPOCH   = 3312
BSTAR          = .46922E-3
MEAN_MOTION_DOT = .12834E-3
MEAN_MOTION_DDOT = 0

CCSDS_OMM_VERS = 2.0
CREATION_DATE  = 
ORIGINATOR     = 

OBJECT_NAME    = SL-8 R/B
OBJECT_ID      = 1988-053B
CENTER_NAME    = EARTH
REF_FRAME      = TEME
TIME_SYSTEM    = UTC
MEAN_ELEMENT_THEORY = SGP/SGP4

EPOCH          = 2026-02-06T20:58:39.014688
MEAN_MOTION    = 14.38897204
ECCENTRICITY   = .0020322
INCLINATION    = 74.0478
RA_OF_ASC_NODE = 169.2612
ARG_OF_PERICENTER = 354.3388
MEAN_ANOMALY   = 156.2040

EPHEMERIS_TYPE = 0
CLASSIFICATION_TYPE = U
NORAD_CAT_ID   = 19257
ELEMENT_SET_NO = 999
REV_AT_EPOCH   = 97216
BSTAR          = .12648E-3
MEAN_MOTION_DOT = .364E-5
MEAN_MOTION_DDOT = 0

CCSDS_OMM_VERS = 2.0
CREATION_DATE  = 
ORIGINATOR     = 

OBJECT_NAME    = COSMOS 1975
OBJECT_ID      = 1988-093A
CENTER_NAME    = EARTH
REF_FRAME      = TEME
TIME_SYSTEM    = UTC
MEAN_ELEMENT_THEORY = SGP/SGP4

EPOCH          = 2026-02-06T19:27:32.848704
MEAN_MOTION    = 15.27519266
ECCENTRICITY   = .00103411
INCLINATION    = 82.5222
RA_OF_ASC_NODE = 148.6597
ARG_OF_PERICENTER = 279.9775
MEAN_ANOMALY   = 80.0297

EPHEMERIS_TYPE = 0
CLASSIFICATION_TYPE = U
NORAD_CAT_ID   = 19573
ELEMENT_SET_NO = 999
REV_AT_EPOCH   = 1469
BSTAR          = .34203456E-3
MEAN_MOTION_DOT = .9252E-4
MEAN_MOTION_DDOT = 0

CCSDS_OMM_VERS = 2.0
CREATION_DATE  = 
ORIGINATOR     = 

OBJECT_NAME    = SL-14 R/B
OBJECT_ID      = 1988-093B
CENTER_NAME    = EARTH
REF_FRAME      = TEME
TIME_SYSTEM    = UTC
MEAN_ELEMENT_THEORY = SGP/SGP4

EPOCH          = 2026-02-07T03:37:53.818176
MEAN_MOTION    = 14.85622473
ECCENTRICITY   = .0021808
INCLINATION    = 82.5281
RA_OF_ASC_NODE = 70.7198
ARG_OF_PERICENTER = 136.1397
MEAN_ANOMALY   = 284.4803

EPHEMERIS_TYPE = 0
CLASSIFICATION_TYPE = U
NORAD_CAT_ID   = 19574
ELEMENT_SET_NO = 999
REV_AT_EPOCH   = 99650
BSTAR          = .62622E-4
MEAN_MOTION_DOT = .569E-5
MEAN_MOTION_DDOT = 0

CCSDS_OMM_VERS = 2.0
CREATION_DATE  = 
ORIGINATOR     = 

OBJECT_NAME    = SL-16 R/B
OBJECT_ID      = 1988-102B
CENTER_NAME    = EARTH
REF_FRAME      = TEME
TIME_SYSTEM    = UTC
MEAN_ELEMENT_THEORY = SGP/SGP4

EPOCH          = 2026-02-06T21:30:27.664128
MEAN_MOTION    = 14.16146384
ECCENTRICITY   = .0012336
INCLINATION    = 70.9970
RA_OF_ASC_NODE = 216.2855
ARG_OF_PERICENTER = 52.4484
MEAN_ANOMALY   = 307.7758

EPHEMERIS_TYPE = 0
CLASSIFICATION_TYPE = U
NORAD_CAT_ID   = 19650
ELEMENT_SET_NO = 999
REV_AT_EPOCH   = 92253
BSTAR          = .83808E-4
MEAN_MOTION_DOT = .118E-5
MEAN_MOTION_DDOT = 0

CCSDS_OMM_VERS = 2.0
CREATION_DATE  = 
ORIGINATOR     = 

OBJECT_NAME    = INTERCOSMOS 24
OBJECT_ID      = 1989-080A
CENTER_NAME    = EARTH
REF_FRAME      = TEME
TIME_SYSTEM    = UTC
MEAN_ELEMENT_THEORY = SGP/SGP4

EPOCH          = 2026-02-06T17:54:42.741792
MEAN_MOTION    = 12.59516015
ECCENTRICITY   = .11881696
INCLINATION    = 82.6069
RA_OF_ASC_NODE = 124.5440
ARG_OF_PERICENTER = 4.6728
MEAN_ANOMALY   = 356.4357

EPHEMERIS_TYPE = 0
CLASSIFICATION_TYPE = U
NORAD_CAT_ID   = 20261
ELEMENT_SET_NO = 999
REV_AT_EPOCH   = 66290
BSTAR          = .20507367E-3
MEAN_MOTION_DOT = .709E-5
MEAN_MOTION_DDOT = 0

CCSDS_OMM_VERS = 2.0
CREATION_DATE  = 
ORIGINATOR     = 

OBJECT_NAME    = SL-14 R/B
OBJECT_ID      = 1989-080C
CENTER_NAME    = EARTH
REF_FRAME      = TEME
TIME_SYSTEM    = UTC
MEAN_ELEMENT_THEORY = SGP/SGP4

EPOCH          = 2026-02-06T21:49:03.131328
MEAN_MOTION    = 12.50456880
ECCENTRICITY   = .1229439
INCLINATION    = 82.5942
RA_OF_ASC_NODE = 192.9462
ARG_OF_PERICENTER = 255.1403
MEAN_ANOMALY   = 91.0617

EPHEMERIS_TYPE = 0
CLASSIFICATION_TYPE = U
NORAD_CAT_ID   = 20262
ELEMENT_SET_NO = 999
REV_AT_EPOCH   = 65630
BSTAR          = .156E-3
MEAN_MOTION_DOT = .514E-5
MEAN_MOTION_DDOT = 0

CCSDS_OMM_VERS = 2.0
CREATION_DATE  = 
ORIGINATOR     = 

OBJECT_NAME    = DELTA 1 R/B
OBJECT_ID      = 1989-089B
CENTER_NAME    = EARTH
REF_FRAME      = TEME
TIME_SYSTEM    = UTC
MEAN_ELEMENT_THEORY = SGP/SGP4

EPOCH          = 2026-02-07T03:11:36.009024
MEAN_MOTION    = 14.50637371
ECCENTRICITY   = .0068128
INCLINATION    = 97.0726
RA_OF_ASC_NODE = 250.4273
ARG_OF_PERICENTER = 218.3627
MEAN_ANOMALY   = 141.2716

EPHEMERIS_TYPE = 0
CLASSIFICATION_TYPE = U
NORAD_CAT_ID   = 20323
ELEMENT_SET_NO = 999
REV_AT_EPOCH   = 89130
BSTAR          = .13803E-3
MEAN_MOTION_DOT = .522E-5
MEAN_MOTION_DDOT = 0

CCSDS_OMM_VERS = 2.0
CREATION_DATE  = 
ORIGINATOR     = 

OBJECT_NAME    = ARIANE 40 R/B
OBJECT_ID      = 1990-005H
CENTER_NAME    = EARTH
REF_FRAME      = TEME
TIME_SYSTEM    = UTC
MEAN_ELEMENT_THEORY = SGP/SGP4

EPOCH          = 2026-02-07T04:01:33.273408
MEAN_MOTION    = 14.39849973
ECCENTRICITY   = .0009011
INCLINATION    = 98.3151
RA_OF_ASC_NODE = 99.7284
ARG_OF_PERICENTER = 299.5427
MEAN_ANOMALY   = 60.4862

EPHEMERIS_TYPE = 0
CLASSIFICATION_TYPE = U
NORAD_CAT_ID   = 20443
ELEMENT_SET_NO = 999
REV_AT_EPOCH   = 88841
BSTAR          = .13314E-3
MEAN_MOTION_DOT = .376E-5
MEAN_MOTION_DDOT = 0

